OBJECT_NAME,OBJECT_ID,EPOCH,MEAN_MOTION,ECCENTRICITY,INCLINATION,RA_OF_ASC_NODE,ARG_OF_PERICENTER,MEAN_ANOMALY,EPHEMERIS_TYPE,CLASSIFICATION_TYPE,NORAD_CAT_ID,ELEMENT_SET_NO,REV_AT_EPOCH,BSTAR,MEAN_MOTION_DOT,MEAN_MOTION_DDOT
ONEWEB-0395,2021-132G,2026-07-14T13:22:55.437312,13.11419097,.00020351,87.8883,15.6161,85.7405,274.3955,0,U,50475,999,21930,.12588944E-2,.459E-5,0
ONEWEB-0396,2021-132H,2026-07-14T09:45:57.271104,13.18686279,.00017461,87.9195,330.0427,95.4436,264.6895,0,U,50476,999,22522,.67796549E-4,.4E-6,0
ONEWEB-0397,2021-132J,2026-07-14T10:07:48.013536,13.18686220,.00016223,87.9196,330.0399,97.2671,262.8646,0,U,50477,999,22520,.73495832E-4,.42E-6,0
ONEWEB-0398,2021-132K,2026-07-14T12:36:31.526496,13.11416420,.00021669,87.8889,15.6154,89.0720,271.0656,0,U,50478,999,21919,-.13604608E-2,-.469E-5,0
ONEWEB-0399,2021-132L,2026-07-14T12:17:00.301920,13.11414951,.00015467,87.8889,15.6290,77.0402,283.0899,0,U,50479,999,21918,-.25717523E-3,-.78E-6,0
ONEWEB-0400,2021-132M,2026-07-14T09:36:13.705632,13.18684905,.00020511,87.9196,330.0339,96.5284,263.6082,0,U,50480,999,22519,.14939421E-3,.72E-6,0
ONEWEB-0401,2021-132N,2026-07-14T08:52:32.250144,13.18686536,.00017475,87.9200,330.0370,105.1576,254.9750,0,U,50481,999,22519,.15886895E-4,.19E-6,0
ONEWEB-0402,2021-132P,2026-07-14T09:48:22.125024,13.18687626,.00015528,87.9194,330.0184,109.7327,250.3973,0,U,50482,999,22522,-.1657012E-5,.12E-6,0
ONEWEB-0403,2021-132Q,2026-07-14T08:35:32.452800,13.18686395,.00018259,87.9195,330.0530,94.0222,266.1119,0,U,50483,999,22517,.5541174E-5,.15E-6,0
ONEWEB-0404,2021-132R,2026-07-14T13:40:01.199712,13.11415678,.00018406,87.8885,15.6148,80.8727,279.2609,0,U,50484,999,21928,.14269452E-2,.518E-5,0
ONEWEB-0405,2021-132S,2026-07-14T08:54:57.470400,13.18685104,.00023581,87.9201,330.0353,97.4883,262.6517,0,U,50485,999,22557,.97113619E-4,.51E-6,0
ONEWEB-0406,2021-132T,2026-07-14T08:42:48.994848,13.18687025,.00017998,87.9192,330.0520,82.3182,277.8154,0,U,50486,999,22520,.9842102E-4,.52E-6,0
ONEWEB-0407,2021-132U,2026-07-14T10:22:21.006048,13.18687851,.00019466,87.9197,330.0315,103.9070,256.2279,0,U,50487,999,22515,.11935014E-3,.6E-6,0
ONEWEB-0409,2021-132V,2026-07-14T13:37:35.042880,13.11416592,.0001947,87.8891,15.6045,82.5937,277.5412,0,U,50488,999,21917,.15449424E-2,.56E-5,0
ONEWEB-0412,2021-132W,2026-07-14T10:05:22.415712,13.18686427,.00016509,87.9193,330.0412,105.0856,255.0459,0,U,50489,999,22524,-.29437672E-4,.1E-7,0
ONEWEB-0413,2021-132X,2026-07-14T10:12:39.210912,13.18687640,.00017957,87.9186,330.0370,107.7477,252.3851,0,U,50490,999,22518,.97567895E-4,.51E-6,0
ONEWEB-0414,2021-132Y,2026-07-14T09:50:48.231744,13.18687195,.00017228,87.9195,330.0248,98.7249,261.4078,0,U,50491,999,22521,.20807174E-3,.95E-6,0
ONEWEB-0417,2021-132Z,2026-07-14T08:13:40.651104,13.18686955,.00018768,87.9188,330.0553,91.1485,268.9862,0,U,50492,999,22518,.67772966E-4,.4E-6,0
ONEWEB-0418,2021-132AA,2026-07-14T10:17:18.680352,13.18685515,.00018881,87.9192,330.0392,89.8583,270.2766,0,U,50493,999,22525,-.86996708E-4,-.21E-6,0
ONEWEB-0419,2021-132AB,2026-07-14T10:44:41.483040,13.18666287,.00020892,87.9197,330.0361,92.5539,267.5833,0,U,50494,999,22517,-.12906301E-4,.8E-7,0
ONEWEB-0420,2021-132AC,2026-07-14T09:53:12.666624,13.18686800,.00019898,87.9186,330.0439,103.7002,256.4352,0,U,50495,999,22516,-.68641274E-4,-.14E-6,0
ONEWEB-0421,2021-132AD,2026-07-14T09:43:32.177856,13.18686510,.00015267,87.9188,330.0432,98.9464,261.1841,0,U,50496,999,22520,.24903261E-3,.111E-5,0
ONEWEB-0424,2021-132AE,2026-07-14T10:36:56.523168,13.18686610,.00022036,87.9198,330.0355,93.5553,266.5832,0,U,50497,999,22523,-.48314247E-4,-.6E-7,0
ONEWEB-0426,2021-132AF,2026-07-14T09:37:27.443712,13.18686072,.00013823,87.9196,330.0347,81.4272,278.7017,0,U,50498,999,22517,.15885703E-3,.76E-6,0
ONEWEB-0427,2021-132AG,2026-07-14T10:34:30.942624,13.18686577,.00018129,87.9199,330.0160,91.5836,268.5503,0,U,50499,999,22520,-.1219165E-3,-.35E-6,0
ONEWEB-0429,2021-132AH,2026-07-14T10:15:04.329216,13.18686981,.00019116,87.9189,330.0410,102.0153,258.1194,0,U,50500,999,22517,.5387371E-5,.15E-6,0
ONEWEB-0430,2021-132AJ,2026-07-14T09:58:04.459296,13.18688302,.00020565,87.9190,330.0425,102.6410,257.4952,0,U,50501,999,22521,.74782578E-4,.42E-6,0
ONEWEB-0432,2021-132AK,2026-07-14T09:33:37.211904,13.18686355,.00023526,87.9195,330.0317,98.3665,261.7734,0,U,50502,999,22516,.10022221E-3,.52E-6,0
ONEWEB-0440,2021-132AL,2026-07-14T10:27:13.127904,13.18686975,.00016776,87.9197,330.0359,107.0743,253.0574,0,U,50503,999,22516,-.31292325E-4,.1E-7,0
ONEWEB-0450,2021-132AM,2026-07-14T10:17:42.614016,13.18686583,.00019896,87.9189,330.0394,103.3014,256.8340,0,U,50504,999,22519,-.5449135E-4,-.9E-7,0
