ONEWEB-0395             
1 50475U 21132G   26195.55758608  .00000459  00000+0  12589-2 0  9991
2 50475  87.8883  15.6161 0002035  85.7405 274.3955 13.11419097219300
ONEWEB-0396             
1 50476U 21132H   26195.40691286  .00000040  00000+0  67797-4 0  9993
2 50476  87.9195 330.0427 0001746  95.4436 264.6895 13.18686279225225
ONEWEB-0397             
1 50477U 21132J   26195.42208349  .00000042  00000+0  73496-4 0  9995
2 50477  87.9196 330.0399 0001622  97.2671 262.8646 13.18686220225207
ONEWEB-0398             
1 50478U 21132K   26195.52536489 -.00000469  00000+0 -13605-2 0  9995
2 50478  87.8889  15.6154 0002166  89.0720 271.0656 13.11416420219199
ONEWEB-0399             
1 50479U 21132L   26195.51180905 -.00000078  00000+0 -25718-3 0  9998
2 50479  87.8889  15.6290 0001546  77.0402 283.0899 13.11414951219184
ONEWEB-0400             
1 50480U 21132M   26195.40015863  .00000072  00000+0  14939-3 0  9993
2 50480  87.9196 330.0339 0002051  96.5284 263.6082 13.18684905225193
ONEWEB-0401             
1 50481U 21132N   26195.36981771  .00000019  00000+0  15887-4 0  9994
2 50481  87.9200 330.0370 0001747 105.1576 254.9750 13.18686536225194
ONEWEB-0402             
1 50482U 21132P   26195.40858941  .00000012  00000+0 -16570-5 0  9997
2 50482  87.9194 330.0184 0001552 109.7327 250.3973 13.18687626225220
ONEWEB-0403             
1 50483U 21132Q   26195.35801450  .00000015  00000+0  55412-5 0  9995
2 50483  87.9195 330.0530 0001825  94.0222 266.1119 13.18686395225173
ONEWEB-0404             
1 50484U 21132R   26195.56945833  .00000518  00000+0  14269-2 0  9993
2 50484  87.8885  15.6148 0001840  80.8727 279.2609 13.11415678219281
ONEWEB-0405             
1 50485U 21132S   26195.37149850  .00000051  00000+0  97114-4 0  9992
2 50485  87.9201 330.0353 0002358  97.4883 262.6517 13.18685104225572
ONEWEB-0406             
1 50486U 21132T   26195.36306707  .00000052  00000+0  98421-4 0  9991
2 50486  87.9192 330.0520 0001799  82.3182 277.8154 13.18687025225200
ONEWEB-0407             
1 50487U 21132U   26195.43218757  .00000060  00000+0  11935-3 0  9990
2 50487  87.9197 330.0315 0001946 103.9070 256.2279 13.18687851225158
ONEWEB-0409             
1 50488U 21132V   26195.56776670  .00000560  00000+0  15449-2 0  9996
2 50488  87.8891  15.6045 0001947  82.5937 277.5412 13.11416592219175
ONEWEB-0412             
1 50489U 21132W   26195.42039833  .00000001  00000+0 -29438-4 0  9991
2 50489  87.9193 330.0412 0001650 105.0856 255.0459 13.18686427225246
ONEWEB-0413             
1 50490U 21132X   26195.42545383  .00000051  00000+0  97568-4 0  9998
2 50490  87.9186 330.0370 0001795 107.7477 252.3851 13.18687640225188
ONEWEB-0414             
1 50491U 21132Y   26195.41028046  .00000095  00000+0  20807-3 0  9999
2 50491  87.9195 330.0248 0001722  98.7249 261.4078 13.18687195225210
ONEWEB-0417             
1 50492U 21132Z   26195.34283161  .00000040  00000+0  67773-4 0  9997
2 50492  87.9188 330.0553 0001876  91.1485 268.9862 13.18686955225183
ONEWEB-0418             
1 50493U 21132AA  26195.42868843 -.00000021  00000+0 -86997-4 0  9993
2 50493  87.9192 330.0392 0001888  89.8583 270.2766 13.18685515225254
ONEWEB-0419             
1 50494U 21132AB  26195.44770235  .00000008  00000+0 -12906-4 0  9996
2 50494  87.9197 330.0361 0002089  92.5539 267.5833 13.18666287225172
ONEWEB-0420             
1 50495U 21132AC  26195.41195216 -.00000014  00000+0 -68641-4 0  9999
2 50495  87.9186 330.0439 0001989 103.7002 256.4352 13.18686800225160
ONEWEB-0421             
1 50496U 21132AD  26195.40523354  .00000111  00000+0  24903-3 0  9995
2 50496  87.9188 330.0432 0001526  98.9464 261.1841 13.18686510225209
ONEWEB-0424             
1 50497U 21132AE  26195.44232087 -.00000006  00000+0 -48314-4 0  9998
2 50497  87.9198 330.0355 0002203  93.5553 266.5832 13.18686610225231
ONEWEB-0426             
1 50498U 21132AF  26195.40101208  .00000076  00000+0  15886-3 0  9997
2 50498  87.9196 330.0347 0001382  81.4272 278.7017 13.18686072225177
ONEWEB-0427             
1 50499U 21132AG  26195.44063591 -.00000035  00000+0 -12192-3 0  9998
2 50499  87.9199 330.0160 0001812  91.5836 268.5503 13.18686577225201
ONEWEB-0429             
1 50500U 21132AH  26195.42713344  .00000015  00000+0  53874-5 0  9997
2 50500  87.9189 330.0410 0001911 102.0153 258.1194 13.18686981225177
ONEWEB-0430             
1 50501U 21132AJ  26195.41532939  .00000042  00000+0  74783-4 0  9997
2 50501  87.9190 330.0425 0002056 102.6410 257.4952 13.18688302225217
ONEWEB-0432             
1 50502U 21132AK  26195.39834736  .00000052  00000+0  10022-3 0  9991
2 50502  87.9195 330.0317 0002352  98.3665 261.7734 13.18686355225161
ONEWEB-0440             
1 50503U 21132AL  26195.43556861  .00000001  00000+0 -31292-4 0  9995
2 50503  87.9197 330.0359 0001677 107.0743 253.0574 13.18686975225168
ONEWEB-0450             
1 50504U 21132AM  26195.42896544 -.00000009  00000+0 -54491-4 0  9995
2 50504  87.9189 330.0394 0001989 103.3014 256.8340 13.18686583225195
